STARLINK-37061          
1 68185U 26050U   26094.65862748  .00134675  00000+0  67469-3 0  9998
2 68185  53.1570 151.5376 0001297 140.7937 219.3180 15.80891623  4583
STARLINK-37079          
1 68186U 26050V   26093.51993788  .00091190  00000+0  46237-3 0  9996
2 68186  53.1575 157.2358 0001136  74.7271 285.3878 15.80793272  4400
STARLINK-37006          
1 68187U 26050W   26094.65712664  .00116874  00000+0  58705-3 0  9995
2 68187  53.1568 151.5276 0001036 132.3122 227.7988 15.80896882  4586
STARLINK-36340          
1 68188U 26050X   26093.58165743  .00222666  00000+0  11038-2 0  9991
2 68188  53.1577 156.9088 0001625  70.5339 289.5859 15.80853310  4317
STARLINK-36305          
1 68189U 26050Y   26094.65562545  .00108992  00000+0  54846-3 0  9992
2 68189  53.1568 151.5178 0000980  46.5400 313.5704 15.80886576  4489
STARLINK-37071          
1 68190U 26050Z   26094.65412857  .00119954  00000+0  60278-3 0  9990
2 68190  53.1568 151.5069 0001187  94.3548 265.7610 15.80876207  4589
STARLINK-37091          
1 68191U 26050AA  26094.65337587  .00150716  00000+0  75290-3 0  9998
2 68191  53.1565 151.5018 0001046  95.4348 264.6794 15.80901252  4585
STARLINK-37098          
1 68192U 26050AB  26094.65262587  .00148386  00000+0  74143-3 0  9992
2 68192  53.1566 151.4966 0001232  80.2891 279.8271 15.80903792  4589
STARLINK-37090          
1 68193U 26050AC  26094.65112928  .00081539  00000+0  41283-3 0  9991
2 68193  53.1566 151.4857 0001870  57.4840 302.6363 15.80868312  4582
STARLINK-37093          
1 68194U 26050AD  26094.59165366  .00027040  00000+0  14008-3 0  9991
2 68194  53.1566 151.8286 0000838 119.5347 240.5759 15.80876360  4578
STARLINK-37058          
1 68195U 26050AE  26094.65187715  .00197921  00000+0  98139-3 0  9994
2 68195  53.1564 151.4913 0001612  59.0267 301.0914 15.80919158  3028
YAOGAN-50 02            
1 68196U 26051A   26094.64417222  .00000314  00000+0  11500-3 0  9990
2 68196 141.9859 332.4337 0000723 270.7167  89.3470 13.83260964  2809
