CCSDS_OMM_VERS = 2.0
CREATION_DATE  = 
ORIGINATOR     = 

OBJECT_NAME    = STARLINK-37061
OBJECT_ID      = 2026-050U
CENTER_NAME    = EARTH
REF_FRAME      = TEME
TIME_SYSTEM    = UTC
MEAN_ELEMENT_THEORY = SGP/SGP4

EPOCH          = 2026-04-04T15:48:25.414272
MEAN_MOTION    = 15.80891623
ECCENTRICITY   = .0001297
INCLINATION    = 53.1570
RA_OF_ASC_NODE = 151.5376
ARG_OF_PERICENTER = 140.7937
MEAN_ANOMALY   = 219.3180

EPHEMERIS_TYPE = 0
CLASSIFICATION_TYPE = U
NORAD_CAT_ID   = 68185
ELEMENT_SET_NO = 999
REV_AT_EPOCH   = 458
BSTAR          = .67469E-3
MEAN_MOTION_DOT = .134675E-2
MEAN_MOTION_DDOT = 0

CCSDS_OMM_VERS = 2.0
CREATION_DATE  = 
ORIGINATOR     = 

OBJECT_NAME    = STARLINK-37079
OBJECT_ID      = 2026-050V
CENTER_NAME    = EARTH
REF_FRAME      = TEME
TIME_SYSTEM    = UTC
MEAN_ELEMENT_THEORY = SGP/SGP4

EPOCH          = 2026-04-03T12:28:42.632832
MEAN_MOTION    = 15.80793272
ECCENTRICITY   = .0001136
INCLINATION    = 53.1575
RA_OF_ASC_NODE = 157.2358
ARG_OF_PERICENTER = 74.7271
MEAN_ANOMALY   = 285.3878

EPHEMERIS_TYPE = 0
CLASSIFICATION_TYPE = U
NORAD_CAT_ID   = 68186
ELEMENT_SET_NO = 999
REV_AT_EPOCH   = 440
BSTAR          = .46237E-3
MEAN_MOTION_DOT = .9119E-3
MEAN_MOTION_DDOT = 0

CCSDS_OMM_VERS = 2.0
CREATION_DATE  = 
ORIGINATOR     = 

OBJECT_NAME    = STARLINK-37006
OBJECT_ID      = 2026-050W
CENTER_NAME    = EARTH
REF_FRAME      = TEME
TIME_SYSTEM    = UTC
MEAN_ELEMENT_THEORY = SGP/SGP4

EPOCH          = 2026-04-04T15:46:15.741696
MEAN_MOTION    = 15.80896882
ECCENTRICITY   = .0001036
INCLINATION    = 53.1568
RA_OF_ASC_NODE = 151.5276
ARG_OF_PERICENTER = 132.3122
MEAN_ANOMALY   = 227.7988

EPHEMERIS_TYPE = 0
CLASSIFICATION_TYPE = U
NORAD_CAT_ID   = 68187
ELEMENT_SET_NO = 999
REV_AT_EPOCH   = 458
BSTAR          = .58705E-3
MEAN_MOTION_DOT = .116874E-2
MEAN_MOTION_DDOT = 0

CCSDS_OMM_VERS = 2.0
CREATION_DATE  = 
ORIGINATOR     = 

OBJECT_NAME    = STARLINK-36340
OBJECT_ID      = 2026-050X
CENTER_NAME    = EARTH
REF_FRAME      = TEME
TIME_SYSTEM    = UTC
MEAN_ELEMENT_THEORY = SGP/SGP4

EPOCH          = 2026-04-03T13:57:35.201952
MEAN_MOTION    = 15.80853310
ECCENTRICITY   = .0001625
INCLINATION    = 53.1577
RA_OF_ASC_NODE = 156.9088
ARG_OF_PERICENTER = 70.5339
MEAN_ANOMALY   = 289.5859

EPHEMERIS_TYPE = 0
CLASSIFICATION_TYPE = U
NORAD_CAT_ID   = 68188
ELEMENT_SET_NO = 999
REV_AT_EPOCH   = 431
BSTAR          = .11038E-2
MEAN_MOTION_DOT = .222666E-2
MEAN_MOTION_DDOT = 0

CCSDS_OMM_VERS = 2.0
CREATION_DATE  = 
ORIGINATOR     = 

OBJECT_NAME    = STARLINK-36305
OBJECT_ID      = 2026-050Y
CENTER_NAME    = EARTH
REF_FRAME      = TEME
TIME_SYSTEM    = UTC
MEAN_ELEMENT_THEORY = SGP/SGP4

EPOCH          = 2026-04-04T15:44:06.038880
MEAN_MOTION    = 15.80886576
ECCENTRICITY   = .000098
INCLINATION    = 53.1568
RA_OF_ASC_NODE = 151.5178
ARG_OF_PERICENTER = 46.5400
MEAN_ANOMALY   = 313.5704

EPHEMERIS_TYPE = 0
CLASSIFICATION_TYPE = U
NORAD_CAT_ID   = 68189
ELEMENT_SET_NO = 999
REV_AT_EPOCH   = 448
BSTAR          = .54846E-3
MEAN_MOTION_DOT = .108992E-2
MEAN_MOTION_DDOT = 0

CCSDS_OMM_VERS = 2.0
CREATION_DATE  = 
ORIGINATOR     = 

OBJECT_NAME    = STARLINK-37071
OBJECT_ID      = 2026-050Z
CENTER_NAME    = EARTH
REF_FRAME      = TEME
TIME_SYSTEM    = UTC
MEAN_ELEMENT_THEORY = SGP/SGP4

EPOCH          = 2026-04-04T15:41:56.708448
MEAN_MOTION    = 15.80876207
ECCENTRICITY   = .0001187
INCLINATION    = 53.1568
RA_OF_ASC_NODE = 151.5069
ARG_OF_PERICENTER = 94.3548
MEAN_ANOMALY   = 265.7610

EPHEMERIS_TYPE = 0
CLASSIFICATION_TYPE = U
NORAD_CAT_ID   = 68190
ELEMENT_SET_NO = 999
REV_AT_EPOCH   = 458
BSTAR          = .60278E-3
MEAN_MOTION_DOT = .119954E-2
MEAN_MOTION_DDOT = 0

CCSDS_OMM_VERS = 2.0
CREATION_DATE  = 
ORIGINATOR     = 

OBJECT_NAME    = STARLINK-37091
OBJECT_ID      = 2026-050AA
CENTER_NAME    = EARTH
REF_FRAME      = TEME
TIME_SYSTEM    = UTC
MEAN_ELEMENT_THEORY = SGP/SGP4

EPOCH          = 2026-04-04T15:40:51.675168
MEAN_MOTION    = 15.80901252
ECCENTRICITY   = .0001046
INCLINATION    = 53.1565
RA_OF_ASC_NODE = 151.5018
ARG_OF_PERICENTER = 95.4348
MEAN_ANOMALY   = 264.6794

EPHEMERIS_TYPE = 0
CLASSIFICATION_TYPE = U
NORAD_CAT_ID   = 68191
ELEMENT_SET_NO = 999
REV_AT_EPOCH   = 458
BSTAR          = .7529E-3
MEAN_MOTION_DOT = .150716E-2
MEAN_MOTION_DDOT = 0

CCSDS_OMM_VERS = 2.0
CREATION_DATE  = 
ORIGINATOR     = 

OBJECT_NAME    = STARLINK-37098
OBJECT_ID      = 2026-050AB
CENTER_NAME    = EARTH
REF_FRAME      = TEME
TIME_SYSTEM    = UTC
MEAN_ELEMENT_THEORY = SGP/SGP4

EPOCH          = 2026-04-04T15:39:46.875168
MEAN_MOTION    = 15.80903792
ECCENTRICITY   = .0001232
INCLINATION    = 53.1566
RA_OF_ASC_NODE = 151.4966
ARG_OF_PERICENTER = 80.2891
MEAN_ANOMALY   = 279.8271

EPHEMERIS_TYPE = 0
CLASSIFICATION_TYPE = U
NORAD_CAT_ID   = 68192
ELEMENT_SET_NO = 999
REV_AT_EPOCH   = 458
BSTAR          = .74143E-3
MEAN_MOTION_DOT = .148386E-2
MEAN_MOTION_DDOT = 0

CCSDS_OMM_VERS = 2.0
CREATION_DATE  = 
ORIGINATOR     = 

OBJECT_NAME    = STARLINK-37090
OBJECT_ID      = 2026-050AC
CENTER_NAME    = EARTH
REF_FRAME      = TEME
TIME_SYSTEM    = UTC
MEAN_ELEMENT_THEORY = SGP/SGP4

EPOCH          = 2026-04-04T15:37:37.569792
MEAN_MOTION    = 15.80868312
ECCENTRICITY   = .000187
INCLINATION    = 53.1566
RA_OF_ASC_NODE = 151.4857
ARG_OF_PERICENTER = 57.4840
MEAN_ANOMALY   = 302.6363

EPHEMERIS_TYPE = 0
CLASSIFICATION_TYPE = U
NORAD_CAT_ID   = 68193
ELEMENT_SET_NO = 999
REV_AT_EPOCH   = 458
BSTAR          = .41283E-3
MEAN_MOTION_DOT = .81539E-3
MEAN_MOTION_DDOT = 0

CCSDS_OMM_VERS = 2.0
CREATION_DATE  = 
ORIGINATOR     = 

OBJECT_NAME    = STARLINK-37093
OBJECT_ID      = 2026-050AD
CENTER_NAME    = EARTH
REF_FRAME      = TEME
TIME_SYSTEM    = UTC
MEAN_ELEMENT_THEORY = SGP/SGP4

EPOCH          = 2026-04-04T14:11:58.876224
MEAN_MOTION    = 15.80876360
ECCENTRICITY   = .0000838
INCLINATION    = 53.1566
RA_OF_ASC_NODE = 151.8286
ARG_OF_PERICENTER = 119.5347
MEAN_ANOMALY   = 240.5759

EPHEMERIS_TYPE = 0
CLASSIFICATION_TYPE = U
NORAD_CAT_ID   = 68194
ELEMENT_SET_NO = 999
REV_AT_EPOCH   = 457
BSTAR          = .14008E-3
MEAN_MOTION_DOT = .2704E-3
MEAN_MOTION_DDOT = 0

CCSDS_OMM_VERS = 2.0
CREATION_DATE  = 
ORIGINATOR     = 

OBJECT_NAME    = STARLINK-37058
OBJECT_ID      = 2026-050AE
CENTER_NAME    = EARTH
REF_FRAME      = TEME
TIME_SYSTEM    = UTC
MEAN_ELEMENT_THEORY = SGP/SGP4

EPOCH          = 2026-04-04T15:38:42.185760
MEAN_MOTION    = 15.80919158
ECCENTRICITY   = .0001612
INCLINATION    = 53.1564
RA_OF_ASC_NODE = 151.4913
ARG_OF_PERICENTER = 59.0267
MEAN_ANOMALY   = 301.0914

EPHEMERIS_TYPE = 0
CLASSIFICATION_TYPE = U
NORAD_CAT_ID   = 68195
ELEMENT_SET_NO = 999
REV_AT_EPOCH   = 302
BSTAR          = .98139E-3
MEAN_MOTION_DOT = .197921E-2
MEAN_MOTION_DDOT = 0

CCSDS_OMM_VERS = 2.0
CREATION_DATE  = 
ORIGINATOR     = 

OBJECT_NAME    = YAOGAN-50 02
OBJECT_ID      = 2026-051A
CENTER_NAME    = EARTH
REF_FRAME      = TEME
TIME_SYSTEM    = UTC
MEAN_ELEMENT_THEORY = SGP/SGP4

EPOCH          = 2026-04-04T15:27:36.479808
MEAN_MOTION    = 13.83260964
ECCENTRICITY   = .0000723
INCLINATION    = 141.9859
RA_OF_ASC_NODE = 332.4337
ARG_OF_PERICENTER = 270.7167
MEAN_ANOMALY   = 89.3470

EPHEMERIS_TYPE = 0
CLASSIFICATION_TYPE = U
NORAD_CAT_ID   = 68196
ELEMENT_SET_NO = 999
REV_AT_EPOCH   = 280
BSTAR          = .115E-3
MEAN_MOTION_DOT = .314E-5
MEAN_MOTION_DDOT = 0

